CCSDS_OMM_VERS = 2.0
CREATION_DATE  = 
ORIGINATOR     = 

OBJECT_NAME    = SAKHACUBE-CHOLBON (RS-18S)
OBJECT_ID      = 2025-313AU
CENTER_NAME    = EARTH
REF_FRAME      = TEME
TIME_SYSTEM    = UTC
MEAN_ELEMENT_THEORY = SGP/SGP4

EPOCH          = 2026-01-15T02:35:12.729408
MEAN_MOTION    = 15.21444973
ECCENTRICITY   = .0010242
INCLINATION    = 97.4117
RA_OF_ASC_NODE = 92.3010
ARG_OF_PERICENTER = 167.2853
MEAN_ANOMALY   = 192.8643

EPHEMERIS_TYPE = 0
CLASSIFICATION_TYPE = U
NORAD_CAT_ID   = 67290
ELEMENT_SET_NO = 999
REV_AT_EPOCH   = 267
BSTAR          = .25897E-3
MEAN_MOTION_DOT = .5756E-4
MEAN_MOTION_DDOT = 0

CCSDS_OMM_VERS = 2.0
CREATION_DATE  = 
ORIGINATOR     = 

OBJECT_NAME    = QMR-KWT-2
OBJECT_ID      = 2025-313AV
CENTER_NAME    = EARTH
REF_FRAME      = TEME
TIME_SYSTEM    = UTC
MEAN_ELEMENT_THEORY = SGP/SGP4

EPOCH          = 2026-01-15T04:09:16.566624
MEAN_MOTION    = 15.21506035
ECCENTRICITY   = .001015
INCLINATION    = 97.4116
RA_OF_ASC_NODE = 92.3664
ARG_OF_PERICENTER = 167.0859
MEAN_ANOMALY   = 193.0639

EPHEMERIS_TYPE = 0
CLASSIFICATION_TYPE = U
NORAD_CAT_ID   = 67291
ELEMENT_SET_NO = 999
REV_AT_EPOCH   = 268
BSTAR          = .29183E-3
MEAN_MOTION_DOT = .6508E-4
MEAN_MOTION_DDOT = 0

CCSDS_OMM_VERS = 2.0
CREATION_DATE  = 
ORIGINATOR     = 

OBJECT_NAME    = SITRO-AIS-64
OBJECT_ID      = 2025-313AW
CENTER_NAME    = EARTH
REF_FRAME      = TEME
TIME_SYSTEM    = UTC
MEAN_ELEMENT_THEORY = SGP/SGP4

EPOCH          = 2026-01-15T04:08:22.804224
MEAN_MOTION    = 15.21541007
ECCENTRICITY   = .0009925
INCLINATION    = 97.4120
RA_OF_ASC_NODE = 92.3685
ARG_OF_PERICENTER = 166.7493
MEAN_ANOMALY   = 193.4006

EPHEMERIS_TYPE = 0
CLASSIFICATION_TYPE = U
NORAD_CAT_ID   = 67292
ELEMENT_SET_NO = 999
REV_AT_EPOCH   = 268
BSTAR          = .2673E-3
MEAN_MOTION_DOT = .596E-4
MEAN_MOTION_DDOT = 0

CCSDS_OMM_VERS = 2.0
CREATION_DATE  = 
ORIGINATOR     = 

OBJECT_NAME    = SCORPION
OBJECT_ID      = 2025-313AX
CENTER_NAME    = EARTH
REF_FRAME      = TEME
TIME_SYSTEM    = UTC
MEAN_ELEMENT_THEORY = SGP/SGP4

EPOCH          = 2026-01-15T04:10:06.979296
MEAN_MOTION    = 15.21328345
ECCENTRICITY   = .0011839
INCLINATION    = 97.4114
RA_OF_ASC_NODE = 92.3634
ARG_OF_PERICENTER = 158.1356
MEAN_ANOMALY   = 202.0388

EPHEMERIS_TYPE = 0
CLASSIFICATION_TYPE = U
NORAD_CAT_ID   = 67293
ELEMENT_SET_NO = 999
REV_AT_EPOCH   = 268
BSTAR          = .12537E-3
MEAN_MOTION_DOT = .2741E-4
MEAN_MOTION_DDOT = 0

CCSDS_OMM_VERS = 2.0
CREATION_DATE  = 
ORIGINATOR     = 

OBJECT_NAME    = SITRO-AIS-63
OBJECT_ID      = 2025-313AY
CENTER_NAME    = EARTH
REF_FRAME      = TEME
TIME_SYSTEM    = UTC
MEAN_ELEMENT_THEORY = SGP/SGP4

EPOCH          = 2026-01-15T04:07:40.417248
MEAN_MOTION    = 15.21583484
ECCENTRICITY   = .0009811
INCLINATION    = 97.4123
RA_OF_ASC_NODE = 92.3695
ARG_OF_PERICENTER = 166.8925
MEAN_ANOMALY   = 193.2567

EPHEMERIS_TYPE = 0
CLASSIFICATION_TYPE = U
NORAD_CAT_ID   = 67294
ELEMENT_SET_NO = 999
REV_AT_EPOCH   = 268
BSTAR          = .26318E-3
MEAN_MOTION_DOT = .5874E-4
MEAN_MOTION_DDOT = 0

CCSDS_OMM_VERS = 2.0
CREATION_DATE  = 
ORIGINATOR     = 

OBJECT_NAME    = ZORKIY-2M-5
OBJECT_ID      = 2025-313AZ
CENTER_NAME    = EARTH
REF_FRAME      = TEME
TIME_SYSTEM    = UTC
MEAN_ELEMENT_THEORY = SGP/SGP4

EPOCH          = 2026-01-15T04:07:43.774752
MEAN_MOTION    = 15.21550724
ECCENTRICITY   = .0011366
INCLINATION    = 97.4114
RA_OF_ASC_NODE = 92.3657
ARG_OF_PERICENTER = 157.9677
MEAN_ANOMALY   = 202.2050

EPHEMERIS_TYPE = 0
CLASSIFICATION_TYPE = U
NORAD_CAT_ID   = 67295
ELEMENT_SET_NO = 999
REV_AT_EPOCH   = 268
BSTAR          = .22464E-3
MEAN_MOTION_DOT = .5001E-4
MEAN_MOTION_DDOT = 0

CCSDS_OMM_VERS = 2.0
CREATION_DATE  = 
ORIGINATOR     = 

OBJECT_NAME    = SITRO-AIS-62
OBJECT_ID      = 2025-313BA
CENTER_NAME    = EARTH
REF_FRAME      = TEME
TIME_SYSTEM    = UTC
MEAN_ELEMENT_THEORY = SGP/SGP4

EPOCH          = 2026-01-15T04:06:51.265152
MEAN_MOTION    = 15.21631682
ECCENTRICITY   = .0009596
INCLINATION    = 97.4127
RA_OF_ASC_NODE = 92.3714
ARG_OF_PERICENTER = 167.3672
MEAN_ANOMALY   = 192.7807

EPHEMERIS_TYPE = 0
CLASSIFICATION_TYPE = U
NORAD_CAT_ID   = 67296
ELEMENT_SET_NO = 999
REV_AT_EPOCH   = 268
BSTAR          = .2677E-3
MEAN_MOTION_DOT = .5985E-4
MEAN_MOTION_DDOT = 0

CCSDS_OMM_VERS = 2.0
CREATION_DATE  = 
ORIGINATOR     = 

OBJECT_NAME    = SITRO-AIS-61
OBJECT_ID      = 2025-313BB
CENTER_NAME    = EARTH
REF_FRAME      = TEME
TIME_SYSTEM    = UTC
MEAN_ELEMENT_THEORY = SGP/SGP4

EPOCH          = 2026-01-15T04:05:54.031200
MEAN_MOTION    = 15.21694417
ECCENTRICITY   = .0009279
INCLINATION    = 97.4129
RA_OF_ASC_NODE = 92.3721
ARG_OF_PERICENTER = 169.3000
MEAN_ANOMALY   = 190.8435

EPHEMERIS_TYPE = 0
CLASSIFICATION_TYPE = U
NORAD_CAT_ID   = 67297
ELEMENT_SET_NO = 999
REV_AT_EPOCH   = 268
BSTAR          = .2722E-3
MEAN_MOTION_DOT = .6097E-4
MEAN_MOTION_DDOT = 0

CCSDS_OMM_VERS = 2.0
CREATION_DATE  = 
ORIGINATOR     = 

OBJECT_NAME    = TIANHUI 7
OBJECT_ID      = 2025-314A
CENTER_NAME    = EARTH
REF_FRAME      = TEME
TIME_SYSTEM    = UTC
MEAN_ELEMENT_THEORY = SGP/SGP4

EPOCH          = 2026-01-08T03:21:31.038912
MEAN_MOTION    = 15.25383404
ECCENTRICITY   = .00013928
INCLINATION    = 97.4205
RA_OF_ASC_NODE = 85.2818
ARG_OF_PERICENTER = 102.4970
MEAN_ANOMALY   = 257.6424

EPHEMERIS_TYPE = 0
CLASSIFICATION_TYPE = U
NORAD_CAT_ID   = 67300
ELEMENT_SET_NO = 999
REV_AT_EPOCH   = 138
BSTAR          = .82629326E-4
MEAN_MOTION_DOT = .2013E-4
MEAN_MOTION_DDOT = 0

CCSDS_OMM_VERS = 2.0
CREATION_DATE  = 
ORIGINATOR     = 

OBJECT_NAME    = CZ-4B R/B
OBJECT_ID      = 2025-314B
CENTER_NAME    = EARTH
REF_FRAME      = TEME
TIME_SYSTEM    = UTC
MEAN_ELEMENT_THEORY = SGP/SGP4

EPOCH          = 2026-01-15T02:41:17.504160
MEAN_MOTION    = 15.69426340
ECCENTRICITY   = .0138733
INCLINATION    = 97.3741
RA_OF_ASC_NODE = 93.1254
ARG_OF_PERICENTER = 318.8710
MEAN_ANOMALY   = 40.2158

EPHEMERIS_TYPE = 0
CLASSIFICATION_TYPE = U
NORAD_CAT_ID   = 67301
ELEMENT_SET_NO = 999
REV_AT_EPOCH   = 246
BSTAR          = .37201E-3
MEAN_MOTION_DOT = .75997E-3
MEAN_MOTION_DDOT = .38669E-5

CCSDS_OMM_VERS = 2.0
CREATION_DATE  = 
ORIGINATOR     = 

OBJECT_NAME    = SHIJIAN-29A (SJ-29A)
OBJECT_ID      = 2025-315A
CENTER_NAME    = EARTH
REF_FRAME      = TEME
TIME_SYSTEM    = UTC
MEAN_ELEMENT_THEORY = SGP/SGP4

EPOCH          = 2026-01-15T02:27:01.154016
MEAN_MOTION    = 1.00271517
ECCENTRICITY   = .0001533
INCLINATION    = 3.0104
RA_OF_ASC_NODE = 99.1787
ARG_OF_PERICENTER = 305.7289
MEAN_ANOMALY   = 179.4321

EPHEMERIS_TYPE = 0
CLASSIFICATION_TYPE = U
NORAD_CAT_ID   = 67302
ELEMENT_SET_NO = 999
REV_AT_EPOCH   = 8
BSTAR          = 0
MEAN_MOTION_DOT = -.5E-6
MEAN_MOTION_DDOT = 0

CCSDS_OMM_VERS = 2.0
CREATION_DATE  = 
ORIGINATOR     = 

OBJECT_NAME    = CZ-7A R/B
OBJECT_ID      = 2025-315B
CENTER_NAME    = EARTH
REF_FRAME      = TEME
TIME_SYSTEM    = UTC
MEAN_ELEMENT_THEORY = SGP/SGP4

EPOCH          = 2026-01-14T15:03:25.051392
MEAN_MOTION    = 2.43320951
ECCENTRICITY   = .71969787
INCLINATION    = 19.5623
RA_OF_ASC_NODE = 94.4795
ARG_OF_PERICENTER = 190.1136
MEAN_ANOMALY   = 138.0287

EPHEMERIS_TYPE = 0
CLASSIFICATION_TYPE = U
NORAD_CAT_ID   = 67303
ELEMENT_SET_NO = 999
REV_AT_EPOCH   = 36
BSTAR          = .27421012E-2
MEAN_MOTION_DOT = .10676E-2
MEAN_MOTION_DDOT = .1028982E-5

