SAKHACUBE-CHOLBON (RS-*)
1 67290U 25313AU  26015.10778622  .00005756  00000+0  25897-3 0  9991
2 67290  97.4117  92.3010 0010242 167.2853 192.8643 15.21444973  2679
QMR-KWT-2               
1 67291U 25313AV  26015.17310841  .00006508  00000+0  29183-3 0  9992
2 67291  97.4116  92.3664 0010150 167.0859 193.0639 15.21506035  2683
SITRO-AIS-64            
1 67292U 25313AW  26015.17248616  .00005960  00000+0  26730-3 0  9999
2 67292  97.4120  92.3685 0009925 166.7493 193.4006 15.21541007  2680
SCORPION                
1 67293U 25313AX  26015.17369189  .00002741  00000+0  12537-3 0  9993
2 67293  97.4114  92.3634 0011839 158.1356 202.0388 15.21328345  2686
SITRO-AIS-63            
1 67294U 25313AY  26015.17199557  .00005874  00000+0  26318-3 0  9996
2 67294  97.4123  92.3695 0009811 166.8925 193.2567 15.21583484  2686
ZORKIY-2M-5             
1 67295U 25313AZ  26015.17203443  .00005001  00000+0  22464-3 0  9997
2 67295  97.4114  92.3657 0011366 157.9677 202.2050 15.21550724  2687
SITRO-AIS-62            
1 67296U 25313BA  26015.17142668  .00005985  00000+0  26770-3 0  9994
2 67296  97.4127  92.3714 0009596 167.3672 192.7807 15.21631682  2684
SITRO-AIS-61            
1 67297U 25313BB  26015.17076425  .00006097  00000+0  27220-3 0  9998
2 67297  97.4129  92.3721 0009279 169.3000 190.8435 15.21694417  2681
TIANHUI 7               
1 67300U 25314A   26008.13994258  .00002013  00000+0  82629-4 0  9994
2 67300  97.4205  85.2818 0001392 102.4970 257.6424 15.25383404  1382
CZ-4B R/B               
1 67301U 25314B   26015.11200815  .00075997  38669-5  37201-3 0  9994
2 67301  97.3741  93.1254 0138733 318.8710  40.2158 15.69426340  2469
SHIJIAN-29A (SJ-29A)    
1 67302U 25315A   26015.10209669 -.00000050  00000+0  00000+0 0  9995
2 67302   3.0104  99.1787 0001533 305.7289 179.4321  1.00271517    84
CZ-7A R/B               
1 67303U 25315B   26014.62737328  .00106760  10290-5  27421-2 0  9991
2 67303  19.5623  94.4795 7196978 190.1136 138.0287  2.43320951   360
